[
    {
        "id": 1,
        "name": "Person 1",
        "address": "Address 1",
        "street": "Street 1",
        "city": "City 1",
        "postcode": "10001",
        "houseNumber": "1A"
    },
    {
        "id": 2,
        "name": "Person 2",
        "address": "Address 2",
        "street": "Street 2",
        "city": "City 2",
        "postcode": "10002",
        "houseNumber": "2B"
    },
    {
        "id": 3,
        "name": "Person 3",
        "address": "Address 3",
        "street": "Street 3",
        "city": "City 3",
        "postcode": "10003",
        "houseNumber": "3C"
    },
    {
        "id": 4,
        "name": "Person 4",
        "address": "Address 4",
        "street": "Street 4",
        "city": "City 4",
        "postcode": "10004",
        "houseNumber": "4D"
    },
    {
        "id": 5,
        "name": "Person 5",
        "address": "Address 5",
        "street": "Street 5",
        "city": "City 5",
        "postcode": "10005",
        "houseNumber": "5E"
    },
    {
        "id": 6,
        "name": "Person 6",
        "address": "Address 6",
        "street": "Street 6",
        "city": "City 6",
        "postcode": "10006",
        "houseNumber": "6F"
    },
    {
        "id": 7,
        "name": "Person 7",
        "address": "Address 7",
        "street": "Street 7",
        "city": "City 7",
        "postcode": "10007",
        "houseNumber": "7G"
    },
    {
        "id": 8,
        "name": "Person 8",
        "address": "Address 8",
        "street": "Street 8",
        "city": "City 8",
        "postcode": "10008",
        "houseNumber": "8H"
    },
    {
        "id": 9,
        "name": "Person 9",
        "address": "Address 9",
        "street": "Street 9",
        "city": "City 9",
        "postcode": "10009",
        "houseNumber": "9I"
    },
    {
        "id": 10,
        "name": "Person 10",
        "address": "Address 10",
        "street": "Street 10",
        "city": "City 10",
        "postcode": "10010",
        "houseNumber": "10J"
    },
    {
        "id": 11,
        "name": "Person 11",
        "address": "Address 11",
        "street": "Street 11",
        "city": "City 11",
        "postcode": "10011",
        "houseNumber": "11K"
    },
    {
        "id": 12,
        "name": "Person 12",
        "address": "Address 12",
        "street": "Street 12",
        "city": "City 12",
        "postcode": "10012",
        "houseNumber": "12L"
    },
    {
        "id": 13,
        "name": "Person 13",
        "address": "Address 13",
        "street": "Street 13",
        "city": "City 13",
        "postcode": "10013",
        "houseNumber": "13M"
    },
    {
        "id": 14,
        "name": "Person 14",
        "address": "Address 14",
        "street": "Street 14",
        "city": "City 14",
        "postcode": "10014",
        "houseNumber": "14N"
    },
    {
        "id": 15,
        "name": "Person 15",
        "address": "Address 15",
        "street": "Street 15",
        "city": "City 15",
        "postcode": "10015",
        "houseNumber": "15O"
    },
    {
        "id": 16,
        "name": "Person 16",
        "address": "Address 16",
        "street": "Street 16",
        "city": "City 16",
        "postcode": "10016",
        "houseNumber": "16P"
    },
    {
        "id": 17,
        "name": "Person 17",
        "address": "Address 17",
        "street": "Street 17",
        "city": "City 17",
        "postcode": "10017",
        "houseNumber": "17Q"
    },
    {
        "id": 18,
        "name": "Person 18",
        "address": "Address 18",
        "street": "Street 18",
        "city": "City 18",
        "postcode": "10018",
        "houseNumber": "18R"
    },
    {
        "id": 19,
        "name": "Person 19",
        "address": "Address 19",
        "street": "Street 19",
        "city": "City 19",
        "postcode": "10019",
        "houseNumber": "19S"
    },
    {
        "id": 20,
        "name": "Person 20",
        "address": "Address 20",
        "street": "Street 20",
        "city": "City 20",
        "postcode": "10020",
        "houseNumber": "20T"
    },
    {
        "id": 21,
        "name": "Person 21",
        "address": "Address 21",
        "street": "Street 21",
        "city": "City 21",
        "postcode": "10021",
        "houseNumber": "21U"
    },
    {
        "id": 22,
        "name": "Person 22",
        "address": "Address 22",
        "street": "Street 22",
        "city": "City 22",
        "postcode": "10022",
        "houseNumber": "22V"
    },
    {
        "id": 23,
        "name": "Person 23",
        "address": "Address 23",
        "street": "Street 23",
        "city": "City 23",
        "postcode": "10023",
        "houseNumber": "23W"
    },
    {
        "id": 24,
        "name": "Person 24",
        "address": "Address 24",
        "street": "Street 24",
        "city": "City 24",
        "postcode": "10024",
        "houseNumber": "24X"
    },
    {
        "id": 25,
        "name": "Person 25",
        "address": "Address 25",
        "street": "Street 25",
        "city": "City 25",
        "postcode": "10025",
        "houseNumber": "25Y"
    },
    {
        "id": 26,
        "name": "Person 26",
        "address": "Address 26",
        "street": "Street 26",
        "city": "City 26",
        "postcode": "10026",
        "houseNumber": "26Z"
    },
    {
        "id": 27,
        "name": "Person 27",
        "address": "Address 27",
        "street": "Street 27",
        "city": "City 27",
        "postcode": "10027",
        "houseNumber": "27A"
    },
    {
        "id": 28,
        "name": "Person 28",
        "address": "Address 28",
        "street": "Street 28",
        "city": "City 28",
        "postcode": "10028",
        "houseNumber": "28B"
    },
    {
        "id": 29,
        "name": "Person 29",
        "address": "Address 29",
        "street": "Street 29",
        "city": "City 29",
        "postcode": "10029",
        "houseNumber": "29C"
    },
    {
        "id": 30,
        "name": "Person 30",
        "address": "Address 30",
        "street": "Street 30",
        "city": "City 30",
        "postcode": "10030",
        "houseNumber": "30D"
    },
    {
        "id": 31,
        "name": "Person 31",
        "address": "Address 31",
        "street": "Street 31",
        "city": "City 31",
        "postcode": "10031",
        "houseNumber": "31E"
    },
    {
        "id": 32,
        "name": "Person 32",
        "address": "Address 32",
        "street": "Street 32",
        "city": "City 32",
        "postcode": "10032",
        "houseNumber": "32F"
    },
    {
        "id": 33,
        "name": "Person 33",
        "address": "Address 33",
        "street": "Street 33",
        "city": "City 33",
        "postcode": "10033",
        "houseNumber": "33G"
    },
    {
        "id": 34,
        "name": "Person 34",
        "address": "Address 34",
        "street": "Street 34",
        "city": "City 34",
        "postcode": "10034",
        "houseNumber": "34H"
    },
    {
        "id": 35,
        "name": "Person 35",
        "address": "Address 35",
        "street": "Street 35",
        "city": "City 35",
        "postcode": "10035",
        "houseNumber": "35I"
    },
    {
        "id": 36,
        "name": "Person 36",
        "address": "Address 36",
        "street": "Street 36",
        "city": "City 36",
        "postcode": "10036",
        "houseNumber": "36J"
    },
    {
        "id": 37,
        "name": "Person 37",
        "address": "Address 37",
        "street": "Street 37",
        "city": "City 37",
        "postcode": "10037",
        "houseNumber": "37K"
    },
    {
        "id": 38,
        "name": "Person 38",
        "address": "Address 38",
        "street": "Street 38",
        "city": "City 38",
        "postcode": "10038",
        "houseNumber": "38L"
    },
    {
        "id": 39,
        "name": "Person 39",
        "address": "Address 39",
        "street": "Street 39",
        "city": "City 39",
        "postcode": "10039",
        "houseNumber": "39M"
    },
    {
        "id": 40,
        "name": "Person 40",
        "address": "Address 40",
        "street": "Street 40",
        "city": "City 40",
        "postcode": "10040",
        "houseNumber": "40N"
    },
    {
        "id": 41,
        "name": "Person 41",
        "address": "Address 41",
        "street": "Street 41",
        "city": "City 41",
        "postcode": "10041",
        "houseNumber": "41O"
    },
    {
        "id": 42,
        "name": "Person 42",
        "address": "Address 42",
        "street": "Street 42",
        "city": "City 42",
        "postcode": "10042",
        "houseNumber": "42P"
    },
    {
        "id": 43,
        "name": "Person 43",
        "address": "Address 43",
        "street": "Street 43",
        "city": "City 43",
        "postcode": "10043",
        "houseNumber": "43Q"
    },
    {
        "id": 44,
        "name": "Person 44",
        "address": "Address 44",
        "street": "Street 44",
        "city": "City 44",
        "postcode": "10044",
        "houseNumber": "44R"
    },
    {
        "id": 45,
        "name": "Person 45",
        "address": "Address 45",
        "street": "Street 45",
        "city": "City 45",
        "postcode": "10045",
        "houseNumber": "45S"
    },
    {
        "id": 46,
        "name": "Person 46",
        "address": "Address 46",
        "street": "Street 46",
        "city": "City 46",
        "postcode": "10046",
        "houseNumber": "46T"
    },
    {
        "id": 47,
        "name": "Person 47",
        "address": "Address 47",
        "street": "Street 47",
        "city": "City 47",
        "postcode": "10047",
        "houseNumber": "47U"
    },
    {
        "id": 48,
        "name": "Person 48",
        "address": "Address 48",
        "street": "Street 48",
        "city": "City 48",
        "postcode": "10048",
        "houseNumber": "48V"
    },
    {
        "id": 49,
        "name": "Person 49",
        "address": "Address 49",
        "street": "Street 49",
        "city": "City 49",
        "postcode": "10049",
        "houseNumber": "49W"
    },
    {
        "id": 50,
        "name": "Person 50",
        "address": "Address 50",
        "street": "Street 50",
        "city": "City 50",
        "postcode": "10050",
        "houseNumber": "50X"
    }
]
